{
  "type": "FeatureCollection",
  "features": [
    {
      "type": "Feature",
      "properties": {
        "norad_id": 34420,
        "name": "COSMOS 2251 DEB",
        "group": "cosmos-2251-debris",
        "lat": -1.6450245588932568,
        "lon": -91.43835584547566,
        "alt_km": 601.6583766353397,
        "timestamp": "2025-12-20T22:39:11.019279+00:00",
        "meta_object_name": "COSMOS 2251 DEB",
        "meta_object_id": "1993-036RM",
        "meta_epoch": "2025-12-20T10:57:03.151008",
        "meta_mean_motion": 14.68318652,
        "meta_eccentricity": 0.01063007,
        "meta_inclination": 74.0334,
        "meta_ra_of_asc_node": 89.0333,
        "meta_arg_of_pericenter": 208.3486,
        "meta_mean_anomaly": 277.4553,
        "meta_ephemeris_type": 0,
        "meta_classification_type": "U",
        "meta_norad_cat_id": 34420,
        "meta_element_set_no": 999,
        "meta_rev_at_epoch": 89883,
        "meta_bstar": 0.00016678422,
        "meta_mean_motion_dot": 1.013e-05,
        "meta_mean_motion_ddot": 0,
        "tle_line1": "1 34420U 93036RM  25354.45628647  .00001013  00000+0  16678-3 0  9990",
        "tle_line2": "2 34420  74.0334  89.0333 0106300 208.3486 277.4553 14.68318652898836"
      },
      "geometry": {
        "type": "Point",
        "coordinates": [
          -91.43835584547566,
          -1.6450245588932568
        ]
      }
    },
    {
      "type": "Feature",
      "properties": {
        "norad_id": 34425,
        "name": "COSMOS 2251 DEB",
        "group": "cosmos-2251-debris",
        "lat": 73.82742677036973,
        "lon": 119.95906360330466,
        "alt_km": 674.42089014668,
        "timestamp": "2025-12-20T22:39:11.019289+00:00",
        "meta_object_name": "COSMOS 2251 DEB",
        "meta_object_id": "1993-036RS",
        "meta_epoch": "2025-12-20T12:24:03.268800",
        "meta_mean_motion": 14.62166616,
        "meta_eccentricity": 0.00243586,
        "meta_inclination": 74.0194,
        "meta_ra_of_asc_node": 39.6101,
        "meta_arg_of_pericenter": 163.9813,
        "meta_mean_anomaly": 196.2129,
        "meta_ephemeris_type": 0,
        "meta_classification_type": "U",
        "meta_norad_cat_id": 34425,
        "meta_element_set_no": 999,
        "meta_rev_at_epoch": 88854,
        "meta_bstar": 0.00032863358,
        "meta_mean_motion_dot": 1.63e-05,
        "meta_mean_motion_ddot": 0,
        "tle_line1": "1 34425U 93036RS  25354.51670450  .00001630  00000+0  32863-3 0  9990",
        "tle_line2": "2 34425  74.0194  39.6101 0024358 163.9813 196.2129 14.62166616888540"
      },
      "geometry": {
        "type": "Point",
        "coordinates": [
          119.95906360330466,
          73.82742677036973
        ]
      }
    },
    {
      "type": "Feature",
      "properties": {
        "norad_id": 34429,
        "name": "COSMOS 2251 DEB",
        "group": "cosmos-2251-debris",
        "lat": 17.48366015302738,
        "lon": 155.32061511180174,
        "alt_km": 425.78016438110444,
        "timestamp": "2025-12-20T22:39:11.019298+00:00",
        "meta_object_name": "COSMOS 2251 DEB",
        "meta_object_id": "1993-036RW",
        "meta_epoch": "2025-12-19T12:37:59.714112",
        "meta_mean_motion": 15.44301435,
        "meta_eccentricity": 0.0010491,
        "meta_inclination": 73.9675,
        "meta_ra_of_asc_node": 153.2196,
        "meta_arg_of_pericenter": 352.9418,
        "meta_mean_anomaly": 66.8806,
        "meta_ephemeris_type": 0,
        "meta_classification_type": "U",
        "meta_norad_cat_id": 34429,
        "meta_element_set_no": 999,
        "meta_rev_at_epoch": 89553,
        "meta_bstar": 0.0041473,
        "meta_mean_motion_dot": 0.00196298,
        "meta_mean_motion_ddot": 0,
        "tle_line1": "1 34429U 93036RW  25353.52638558  .00196298  00000+0  41473-2 0  9998",
        "tle_line2": "2 34429  73.9675 153.2196 0010491 352.9418  66.8806 15.44301435895539"
      },
      "geometry": {
        "type": "Point",
        "coordinates": [
          155.32061511180174,
          17.48366015302738
        ]
      }
    },
    {
      "type": "Feature",
      "properties": {
        "norad_id": 34430,
        "name": "COSMOS 2251 DEB",
        "group": "cosmos-2251-debris",
        "lat": -68.5789077276067,
        "lon": -118.56716791065288,
        "alt_km": 752.5084940751094,
        "timestamp": "2025-12-20T22:39:11.019308+00:00",
        "meta_object_name": "COSMOS 2251 DEB",
        "meta_object_id": "1993-036RX",
        "meta_epoch": "2025-12-20T12:59:37.042080",
        "meta_mean_motion": 14.39653943,
        "meta_eccentricity": 0.00607209,
        "meta_inclination": 74.0518,
        "meta_ra_of_asc_node": 288.9673,
        "meta_arg_of_pericenter": 356.7782,
        "meta_mean_anomaly": 3.2972,
        "meta_ephemeris_type": 0,
        "meta_classification_type": "U",
        "meta_norad_cat_id": 34430,
        "meta_element_set_no": 999,
        "meta_rev_at_epoch": 88067,
        "meta_bstar": 0.00032461901,
        "meta_mean_motion_dot": 1.011e-05,
        "meta_mean_motion_ddot": 0,
        "tle_line1": "1 34430U 93036RX  25354.54140095  .00001011  00000+0  32462-3 0  9994",
        "tle_line2": "2 34430  74.0518 288.9673 0060720 356.7782   3.2972 14.39653943880676"
      },
      "geometry": {
        "type": "Point",
        "coordinates": [
          -118.56716791065288,
          -68.5789077276067
        ]
      }
    },
    {
      "type": "Feature",
      "properties": {
        "norad_id": 34431,
        "name": "COSMOS 2251 DEB",
        "group": "cosmos-2251-debris",
        "lat": -45.08574456461531,
        "lon": -3.0088506871729837,
        "alt_km": 796.2486484679039,
        "timestamp": "2025-12-20T22:39:11.019317+00:00",
        "meta_object_name": "COSMOS 2251 DEB",
        "meta_object_id": "1993-036RY",
        "meta_epoch": "2025-12-20T13:11:45.896928",
        "meta_mean_motion": 14.28798339,
        "meta_eccentricity": 0.0067992,
        "meta_inclination": 74.0738,
        "meta_ra_of_asc_node": 161.0622,
        "meta_arg_of_pericenter": 144.678,
        "meta_mean_anomaly": 215.8903,
        "meta_ephemeris_type": 0,
        "meta_classification_type": "U",
        "meta_norad_cat_id": 34431,
        "meta_element_set_no": 999,
        "meta_rev_at_epoch": 87254,
        "meta_bstar": 0.00048501631,
        "meta_mean_motion_dot": 1.228e-05,
        "meta_mean_motion_ddot": 0,
        "tle_line1": "1 34431U 93036RY  25354.54983677  .00001228  00000+0  48502-3 0  9998",
        "tle_line2": "2 34431  74.0738 161.0622 0067992 144.6780 215.8903 14.28798339872545"
      },
      "geometry": {
        "type": "Point",
        "coordinates": [
          -3.0088506871729837,
          -45.08574456461531
        ]
      }
    },
    {
      "type": "Feature",
      "properties": {
        "norad_id": 34432,
        "name": "COSMOS 2251 DEB",
        "group": "cosmos-2251-debris",
        "lat": -10.10990300472359,
        "lon": -89.16250170952094,
        "alt_km": 763.8782488969609,
        "timestamp": "2025-12-20T22:39:11.019327+00:00",
        "meta_object_name": "COSMOS 2251 DEB",
        "meta_object_id": "1993-036RZ",
        "meta_epoch": "2025-12-19T06:32:24.354240",
        "meta_mean_motion": 14.02934229,
        "meta_eccentricity": 0.0181953,
        "meta_inclination": 73.8292,
        "meta_ra_of_asc_node": 90.8154,
        "meta_arg_of_pericenter": 172.489,
        "meta_mean_anomaly": 219.0361,
        "meta_ephemeris_type": 0,
        "meta_classification_type": "U",
        "meta_norad_cat_id": 34432,
        "meta_element_set_no": 999,
        "meta_rev_at_epoch": 85776,
        "meta_bstar": 0.00076949,
        "meta_mean_motion_dot": 1.356e-05,
        "meta_mean_motion_ddot": 0,
        "tle_line1": "1 34432U 93036RZ  25353.27250410  .00001356  00000+0  76949-3 0  9998",
        "tle_line2": "2 34432  73.8292  90.8154 0181953 172.4890 219.0361 14.02934229857765"
      },
      "geometry": {
        "type": "Point",
        "coordinates": [
          -89.16250170952094,
          -10.10990300472359
        ]
      }
    },
    {
      "type": "Feature",
      "properties": {
        "norad_id": 34433,
        "name": "COSMOS 2251 DEB",
        "group": "cosmos-2251-debris",
        "lat": 32.66639928753892,
        "lon": -50.18496113825029,
        "alt_km": 918.6104901762183,
        "timestamp": "2025-12-20T22:39:11.019336+00:00",
        "meta_object_name": "COSMOS 2251 DEB",
        "meta_object_id": "1993-036SA",
        "meta_epoch": "2025-12-20T11:45:18.796896",
        "meta_mean_motion": 14.12883423,
        "meta_eccentricity": 0.01526889,
        "meta_inclination": 74.01,
        "meta_ra_of_asc_node": 141.2128,
        "meta_arg_of_pericenter": 277.6551,
        "meta_mean_anomaly": 80.7272,
        "meta_ephemeris_type": 0,
        "meta_classification_type": "U",
        "meta_norad_cat_id": 34433,
        "meta_element_set_no": 999,
        "meta_rev_at_epoch": 86059,
        "meta_bstar": 0.00075721807,
        "meta_mean_motion_dot": 1.548e-05,
        "meta_mean_motion_ddot": 0,
        "tle_line1": "1 34433U 93036SA  25354.48980089  .00001548  00000+0  75722-3 0  9996",
        "tle_line2": "2 34433  74.0100 141.2128 0152688 277.6551  80.7272 14.12883423860593"
      },
      "geometry": {
        "type": "Point",
        "coordinates": [
          -50.18496113825029,
          32.66639928753892
        ]
      }
    }
  ]
}